YUBILEINY (RS30)        
1 32953U 08025A   26079.57245083  .00000008  00000+0 -13425-4 0  9992
2 32953  82.5015  50.5502 0019931 141.7546 218.4952 12.43176352808688
KKS-1 (KISEKI)          
1 33499U 09002H   26079.59884416  .00001443  00000+0  18495-3 0  9999
2 33499  98.1185   0.6602 0006988 209.1150 150.9674 14.82868367923060
SWISSCUBE               
1 35932U 09051B   26079.22056587  .00000990  00000+0  20588-3 0  9999
2 35932  98.4090 345.5500 0007708 122.8421 237.3522 14.62286439876154
BEESAT-1                
1 35933U 09051C   26079.45839327  .00000840  00000+0  17901-3 0  9995
2 35933  98.4020 345.6104 0005982 132.8524 227.3180 14.61556371876227
ITUPSAT1                
1 35935U 09051E   26079.23491780  .00000760  00000+0  16739-3 0  9999
2 35935  98.4107 344.6675 0007962 146.2097 213.9612 14.60288955875758
XIWANG-1 (HOPE-1)       
1 36122U 09072B   26079.55288551 -.00000248  00000+0 -53345-3 0  9993
2 36122 100.3933  34.8385 0008131  76.6134 283.5885 13.16434791781347
O/OREOS (USA 219)       
1 37224U 10062C   26078.98104998  .00002074  00000+0  20333-3 0  9994
2 37224  71.9692 282.3457 0016542 239.3290 120.6250 14.93329831103329
JUGNU                   
1 37839U 11058B   26079.42968679  .00000451  00000+0  95862-4 0  9993
2 37839  19.9599 127.6469 0018562 175.5130 213.5557 14.13745466746458
SRMSAT                  
1 37841U 11058D   26079.57601854  .00000449  00000+0  10008-3 0  9996
2 37841  19.9709 235.8130 0011750 309.5153 117.4154 14.11551945745287
STRAND-1                
1 39090U 13009E   26079.42584735  .00000289  00000+0  11160-3 0  9996
2 39090  98.3895 261.8509 0009548 131.8347 228.3657 14.37103565684319
ZACUBE-1 (TSHEPISOSAT)  
1 39417U 13066B   26079.40075957  .00002813  00000+0  22436-3 0  9994
2 39417  97.8160  41.2767 0043801 184.6572 175.4250 15.00414103667410
GOMX-1                  
1 39430U 13066Q   26079.58594919  .00001019  00000+0  16028-3 0  9999
2 39430  97.6556 285.6119 0129398   2.7023 357.4854 14.69134869656900
CUBEBUG-2 (LO-74)       
1 39440U 13066AA  26079.42068765  .00003552  00000+0  33611-3 0  9999
2 39440  97.8835  28.1120 0057475 323.3226  36.4065 14.93075405663743
FUNCUBE-1 (AO-73)       
1 39444U 13066AE  26079.39048290  .00006574  00000+0  42344-3 0  9990
2 39444  97.8208  49.1124 0038308 143.4134 216.9722 15.08083615666276
UWE-3                   
1 39446U 13066AG  26079.42978807  .00004079  00000+0  35824-3 0  9995
2 39446  97.8626  35.0046 0047618 255.1980 104.3962 14.96293164664309
UNISAT-6                
1 40012U 14033C   26079.43501557  .00002656  00000+0  29222-3 0  9990
2 40012  97.7746 233.7997 0045266   2.6936 357.4515 14.87704986632968
DUCHIFAT-1              
1 40021U 14033M   26079.34852707  .00040961  00000+0  70359-3 0  9994
2 40021  98.0609 127.0421 0005021  55.1422 305.0300 15.51031526641927
QB50P1                  
1 40025U 14033R   26079.26630630  .00006023  00000+0  31078-3 0  9994
2 40025  98.1005  84.2654 0009539 158.6410 201.5221 15.16721112639543
LILACSAT-2              
1 40908U 15049K   26079.56695711  .00016051  00000+0  30424-3 0  9992
2 40908  97.4784 113.1707 0006724 200.0741 160.0246 15.48401495582022
FOX-1A (AO-85)          
1 40967U 15058D   26079.39557248  .00002505  00000+0  23453-3 0  9993
2 40967  64.7761 194.8017 0128591  91.6206 269.9640 14.90433789100330
CAS-2T & KS-1Q          
1 41847U 16066G   26079.44350882  .00000939  00000+0  14005-3 0  9994
2 41847  98.3871 156.1746 0343175  38.9672 323.5718 14.44498185491988
RADFXSAT (FOX-1B)       
1 43017U 17073E   26079.19088380  .00006348  00000+0  28891-3 0  9995
2 43017  97.4834 308.2675 0153548 275.6617  82.7121 15.11076992451948
DIWATA-2B               
1 43678U 18084H   26079.59569698  .00001318  00000+0  11108-3 0  9996
2 43678  98.1029 272.0800 0012816  93.9963 266.2725 15.00010636402935
ES'HAIL 2               
1 43700U 18090A   26079.27833374  .00000147  00000+0  00000+0 0  9993
2 43700   0.0165 212.8708 0001081 130.5366 320.3929  1.00269948 26780
FOX-1CLIFF (AO-95)      
1 43770U 18099N   26079.14479613  .00009795  00000+0  39894-3 0  9992
2 43770  97.4480 139.8092 0007517 305.5915  54.4622 15.24665968399641
ITASAT                  
1 43786U 18099AE  26079.58677382  .00006367  00000+0  31739-3 0  9992
2 43786  97.4142 132.8940 0011354 305.1841  54.8329 15.17837293399468
JY1SAT (JO-97)          
1 43803U 18099AX  26079.47401834  .00010930  00000+0  37101-3 0  9997
2 43803  97.4231 142.1518 0005462 211.4594 148.6321 15.30666233400049
UWE-4                   
1 43880U 18111E   26079.32885207  .00020978  00000+0  51583-3 0  9994
2 43880  97.5860   4.0086 0006027 291.4082  68.6521 15.40647007397077
TIANYAN 01              
1 44881U 19093C   26079.59152163  .00000033  00000+0  98123-5 0  9996
2 44881  97.7599 153.9707 0014263  24.4789 335.7101 14.86361211338259
RS-44 & BREEZE-KM R/B   
1 44909U 19096E   26079.58315301  .00000001  00000+0 -38871-4 0  9993
2 44909  82.5227  38.5747 0217456 351.8760   7.8840 12.79747552291012
SALSAT                  
1 46495U 20068K   26079.47627313  .00008274  00000+0  30207-3 0  9996
2 46495  97.8860  77.2351 0008127 250.0608 109.9755 15.28382715301802
XW-3 (CAS-9)            
1 50466U 21131B   26079.61184560  .00000394  00000+0  13553-3 0  9999
2 50466  98.4957 172.5035 0004323  21.6357 338.5014 14.41263430222350
GREENCUBE (IO-117)      
1 53109U 22080E   26079.62717892 -.00000003  00000+0  00000+0 0  9998
2 53109  70.1576 329.0544 0008850 310.4874  49.5014  6.42583162 86375
UMKA 1 (RS40S)          
1 57172U 23091G   26079.56831638  .00006401  00000+0  30178-3 0  9993
2 57172  97.5153 138.6298 0014500  72.2597 288.0219 15.19744561150541
CUBESX-HSE 3 (RS42S)    
1 57178U 23091N   26079.62550351  .00012538  00000+0  44802-3 0  9993
2 57178  97.5183 144.2073 0012081  52.8543 307.3799 15.28905803150884
MONITOR-3 (RS58S)       
1 57180U 23091Q   26079.59865113  .00010584  00000+0  41351-3 0  9992
2 57180  97.5178 142.4750 0013159  57.5174 302.7334 15.25984503150775
MONITOR-4 (RS57S)       
1 57182U 23091S   26079.51758784  .00008330  00000+0  32534-3 0  9990
2 57182  97.5172 142.3590 0013141  58.4537 301.7982 15.26067744150763
MONITOR-2 (RS39S)       
1 57184U 23091U   26079.61568916  .00004974  00000+0  24724-3 0  9991
2 57184  97.5175 138.4809 0012762  65.4372 294.8191 15.18035778150510
SVYATOBOR 1 (RS60S)     
1 57187U 23091X   26079.59283704  .00009393  00000+0  37839-3 0  9991
2 57187  97.5184 142.9824 0010618  51.7284 308.4907 15.25024811150801
VIZARD-METEO (RS38S)    
1 57189U 23091Z   26079.59898310  .00015999  00000+0  50158-3 0  9996
2 57189  97.5173 147.4679 0007997  38.2885 321.8923 15.33119826151103
NANOZOND 1 (RS49S)      
1 57190U 23091AA  26078.96088730  .00196167  00000+0  10787-2 0  9995
2 57190  97.5046 160.0690 0002898 268.2838  91.8096 15.79180031151893
POLYTECH-UNIVERSE 3 (R*)
1 57191U 23091AB  26079.58845177  .00005332  00000+0  26291-3 0  9992
2 57191  97.5152 137.9603 0017351  79.6563 280.6625 15.18223047150509
UTMN 2 (RS27S)          
1 57203U 23091AP  26079.62751677  .00012637  00000+0  44003-3 0  9999
2 57203  97.5174 145.7340 0008965  43.0105 317.1835 15.29781449150999
KUZGTU 1 (RS47S)        
1 57217U 23091AV  26079.60949765  .00011661  00000+0  43176-3 0  9995
2 57217  97.5157 143.2861 0012369  55.7844 304.4565 15.27750029150840
SONATE-2                
1 59112U 24043Q   26079.36375115  .00028200  00000+0  46643-3 0  9993
2 59112  97.5418 224.8139 0008120 165.9007 194.2473 15.52144870114083
MESAT1                  
1 60209U 24125G   26079.58177205  .00041709  00000+0  62986-3 0  9994
2 60209  97.2431 295.5503 0012023 179.5169 180.6099 15.54543307 95767
OOV-CUBE (TUBSAT-30)    
1 60240U 24128F   26079.54543731  .00002556  00000+0  20247-3 0  9990
2 60240  61.9953 174.5605 0053632 114.5780 246.0913 15.02324572 92793
COLIBRI-S (RS67S)       
1 61746U 24199M   26079.57453255  .00020051  00000+0  44198-3 0  9995
2 61746  97.3136 312.7936 0007673 236.5339 123.5176 15.43925002123721
HORS 3 (RS81S)          
1 61753U 24199U   26079.63018704  .00033106  00000+0  61026-3 0  9990
2 61753  97.3099 314.0350 0005433 236.0308 124.0427 15.49060213123821
HORS 4 (RS82S)          
1 61754U 24199V   26079.61311397  .00041068  00000+0  68075-3 0  9990
2 61754  97.3073 314.7584 0005158 230.3347 129.7451 15.52028411123876
HORIZON (RS59S)         
1 61757U 24199Y   26079.56905372  .00146581  00000+0  10504-2 0  9998
2 61757  97.3032 318.8835 0004482 188.4692 171.6497 15.73244837124134
ARCTICSAT 1 (RS74S)     
1 61762U 24199AD  26079.61606395  .00104430  00000+0  93794-3 0  9993
2 61762  97.3055 318.3748 0004709 190.6152 169.5011 15.67924462124108
SIT-2086                
1 61764U 24199AF  26079.58229649  .00021960  00000+0  41873-3 0  9991
2 61764  97.3099 314.7024 0006241 224.9273 135.1473 15.48163279120706
HYPERVIEW 1G (RS66S)    
1 61772U 24199AP  26079.60577533  .00058949  00000+0  74308-3 0  9997
2 61772  97.3059 315.9739 0006505 230.6925 129.3756 15.59403134120807
ALTAIR (RS65S)          
1 61779U 24199AW  26079.58739809  .00012052  00000+0  35404-3 0  9996
2 61779  97.3159 309.5656 0011598 263.8514  96.1408 15.35210310123514
ASRTU-1 (AO-123)        
1 61781U 24199AY  26079.57362724  .00008550  00000+0  25952-3 0  9991
2 61781  97.3132 309.0596 0012394 266.1212  93.8614 15.34264346120339
TUSUR GO (RS78S)        
1 61782U 24199AZ  26079.51294029  .00165166  00000+0  11335-2 0  9994
2 61782  97.2988 317.8408 0004451 206.1617 153.9424 15.74204465120927
SAMSAT-IONOSPHERE (RS7*)
1 61784U 24199BB  26079.58112114  .00038823  00000+0  68247-3 0  9991
2 61784  97.3094 313.7966 0008437 243.4276 116.6111 15.50358088123809
RTU MIREA 1 (RS51S)     
1 61785U 24199BC  26079.56508910  .00043886  00000+0  71681-3 0  9994
2 61785  97.3094 314.2580 0008513 240.1922 119.8485 15.52401534120684
